{
  "norad_id": 68541,
  "name": "K-RADCUBE",
  "history": [
    {
      "epoch": "2026-04-02T16:16:32.999808Z",
      "apogee_km": 70275.73400548779,
      "perigee_km": 61.14621286250167,
      "latitude_deg": -28.333580495629974,
      "longitude_deg": -167.3403555402298,
      "height_km": 63684.91206675764,
      "semi_major_axis_km": 41546.577109175145,
      "eccentricity": 0.8450105,
      "inclination_deg": 28.3341,
      "raan_deg": 359.8703,
      "arg_perigee_deg": 77.6642,
      "mean_anomaly_deg": 243.1767,
      "mean_motion_rev_day": 1.02517944
    }
  ]
}